0 COSMOS 2251 DEB
1 36624U 93036BEN 13281.02194969  .00054588  00000-0  57528-2 0  3024
2 36624 074.1850 049.0751 0037320 110.4626 008.4832 14.88532282213586
0 COSMOS 2251 DEB
1 36624U 93036BEN 13282.34981575  .00108138  00000-0  11254-1 0  3034
2 36624 074.1845 046.4478 0036771 106.8933 285.0493 14.88739679213783
0 COSMOS 2251 DEB
1 36624U 93036BEN 13282.69184264  .00078326  00000-0  81759-2 0  3046
2 36624 074.1845 045.7711 0036738 106.0818 318.1995 14.88792314213838
0 COSMOS 2251 DEB
1 36624U 93036BEN 13285.30577672  .00065162  00000-0  67593-2 0  3051
2 36624 074.1848 040.5965 0036339 098.8698 290.8702 14.89132824214227
0 COSMOS 2251 DEB
1 36624U 93036BEN 13287.66368176  .00088057  00000-0  90444-2 0  3069
2 36624 074.1853 035.9262 0035725 092.2355 333.7689 14.89412708214578
0 COSMOS 2251 DEB
1 36624U 93036BEN 13288.67119336  .00087431  00000-0  89386-2 0  3072
2 36624 074.1847 033.9279 0035636 089.6569 336.6307 14.89605105214726
0 COSMOS 2251 DEB
1 36624U 93036BEN 13289.61006021  .00094019  00000-0  95750-2 0  3086
2 36624 074.1841 032.0668 0035162 086.6512 332.5230 14.89734877214865
0 COSMOS 2251 DEB
1 36624U 93036BEN 13290.27638641  .00090350  00000-0  91834-2 0  3093
2 36624 074.1841 030.7460 0035091 084.7704 306.5657 14.89836287214966
0 COSMOS 2251 DEB
1 36624U 93036BEN 13290.96480674  .00077401  00000-0  78576-2 0  3102
2 36624 074.1840 029.3814 0035164 082.7337 039.4690 14.89958533215063
0 COSMOS 2251 DEB
1 36624U 93036BEN 13291.97130907  .00067080  00000-0  67975-2 0  3119
2 36624 074.1838 027.3857 0035148 079.9955 038.8829 14.90092053215213
0 COSMOS 2251 DEB
1 36624U 93036BEN 13292.97899455  .00066844  00000-0  67498-2 0  3128
2 36624 074.1823 025.3864 0035301 077.3424 045.0608 14.90230312215360
0 COSMOS 2251 DEB
1 36624U 93036BEN 13293.91747979  .00071200  00000-0  71696-2 0  3134
2 36624 074.1834 023.5251 0034690 074.1709 041.1028 14.90332854215506
